{
  "type": "FeatureCollection",
  "features": [
    {
      "type": "Feature",
      "properties": {
        "norad_id": 2807,
        "name": "OPS 7218 (TRANSIT 16)",
        "group": "nnss",
        "lat": -23.460789974443163,
        "lon": 173.99243528371323,
        "alt_km": 1078.6696789347889,
        "timestamp": "2025-12-17T17:50:19.519192+00:00",
        "meta_object_name": "OPS 7218 (TRANSIT 16)",
        "meta_object_id": "1967-048A",
        "meta_epoch": "2025-12-17T01:09:42.854688",
        "meta_mean_motion": 13.50723111,
        "meta_eccentricity": 0.00220957,
        "meta_inclination": 89.6731,
        "meta_ra_of_asc_node": 353.8734,
        "meta_arg_of_pericenter": 102.5845,
        "meta_mean_anomaly": 323.6592,
        "meta_ephemeris_type": 0,
        "meta_classification_type": "U",
        "meta_norad_cat_id": 2807,
        "meta_element_set_no": 999,
        "meta_rev_at_epoch": 88334,
        "meta_bstar": 0.00017066936,
        "meta_mean_motion_dot": 1.2e-06,
        "meta_mean_motion_ddot": 0,
        "tle_line1": "1 02807U 67048A   25351.04841267  .00000120  00000+0  17067-3 0  9996",
        "tle_line2": "2 02807  89.6731 353.8734 0022095 102.5845 323.6592 13.50723111883349"
      },
      "geometry": {
        "type": "Point",
        "coordinates": [
          173.99243528371323,
          -23.460789974443163
        ]
      }
    },
    {
      "type": "Feature",
      "properties": {
        "norad_id": 2965,
        "name": "OPS 4947 (TRANSIT 17)",
        "group": "nnss",
        "lat": -42.8242372925842,
        "lon": 23.35792914748413,
        "alt_km": 1070.7025748542856,
        "timestamp": "2025-12-17T17:50:19.519214+00:00",
        "meta_object_name": "OPS 4947 (TRANSIT 17)",
        "meta_object_id": "1967-092A",
        "meta_epoch": "2025-12-17T02:12:56.824704",
        "meta_mean_motion": 13.53454596,
        "meta_eccentricity": 0.00464632,
        "meta_inclination": 89.2493,
        "meta_ra_of_asc_node": 24.1037,
        "meta_arg_of_pericenter": 221.4925,
        "meta_mean_anomaly": 165.3849,
        "meta_ephemeris_type": 0,
        "meta_classification_type": "U",
        "meta_norad_cat_id": 2965,
        "meta_element_set_no": 999,
        "meta_rev_at_epoch": 87156,
        "meta_bstar": 0.00020640394,
        "meta_mean_motion_dot": 1.51e-06,
        "meta_mean_motion_ddot": 0,
        "tle_line1": "1 02965U 67092A   25351.09232436  .00000151  00000+0  20640-3 0  9992",
        "tle_line2": "2 02965  89.2493  24.1037 0046463 221.4925 165.3849 13.53454596871562"
      },
      "geometry": {
        "type": "Point",
        "coordinates": [
          23.35792914748413,
          -42.8242372925842
        ]
      }
    },
    {
      "type": "Feature",
      "properties": {
        "norad_id": 3133,
        "name": "OPS 7034 (TRANSIT 18)",
        "group": "nnss",
        "lat": 71.07142793871674,
        "lon": -86.42924313197811,
        "alt_km": 1053.140550739413,
        "timestamp": "2025-12-17T17:50:19.519228+00:00",
        "meta_object_name": "OPS 7034 (TRANSIT 18)",
        "meta_object_id": "1968-012A",
        "meta_epoch": "2025-12-17T07:25:07.942080",
        "meta_mean_motion": 13.51566744,
        "meta_eccentricity": 0.00742953,
        "meta_inclination": 90.0282,
        "meta_ra_of_asc_node": 273.6518,
        "meta_arg_of_pericenter": 155.9385,
        "meta_mean_anomaly": 324.7957,
        "meta_ephemeris_type": 0,
        "meta_classification_type": "U",
        "meta_norad_cat_id": 3133,
        "meta_element_set_no": 999,
        "meta_rev_at_epoch": 56980,
        "meta_bstar": 0.00013899987,
        "meta_mean_motion_dot": 1.02e-06,
        "meta_mean_motion_ddot": 0,
        "tle_line1": "1 03133U 68012A   25351.30911970  .00000102  00000+0  13900-3 0  9991",
        "tle_line2": "2 03133  90.0282 273.6518 0074295 155.9385 324.7957 13.51566744569805"
      },
      "geometry": {
        "type": "Point",
        "coordinates": [
          -86.42924313197811,
          71.07142793871674
        ]
      }
    },
    {
      "type": "Feature",
      "properties": {
        "norad_id": 4507,
        "name": "NNSS 19 (TRANSIT 19)",
        "group": "nnss",
        "lat": 40.488120047247655,
        "lon": -125.46716514955898,
        "alt_km": 1129.5533467025098,
        "timestamp": "2025-12-17T17:50:19.519241+00:00",
        "meta_object_name": "NNSS 19 (TRANSIT 19)",
        "meta_object_id": "1970-067A",
        "meta_epoch": "2025-12-17T05:11:53.161728",
        "meta_mean_motion": 13.51315974,
        "meta_eccentricity": 0.01703252,
        "meta_inclination": 90.0052,
        "meta_ra_of_asc_node": 234.537,
        "meta_arg_of_pericenter": 280.2879,
        "meta_mean_anomaly": 77.9108,
        "meta_ephemeris_type": 0,
        "meta_classification_type": "U",
        "meta_norad_cat_id": 4507,
        "meta_element_set_no": 999,
        "meta_rev_at_epoch": 72282,
        "meta_bstar": 0.00011984709,
        "meta_mean_motion_dot": 9.3e-07,
        "meta_mean_motion_ddot": 0,
        "tle_line1": "1 04507U 70067A   25351.21658752  .00000093  00000+0  11985-3 0  9996",
        "tle_line2": "2 04507  90.0052 234.5370 0170325 280.2879  77.9108 13.51315974722824"
      },
      "geometry": {
        "type": "Point",
        "coordinates": [
          -125.46716514955898,
          40.488120047247655
        ]
      }
    },
    {
      "type": "Feature",
      "properties": {
        "norad_id": 6909,
        "name": "NNSS 20 (TRANSIT 20)",
        "group": "nnss",
        "lat": 65.09900837360212,
        "lon": 74.6692062804225,
        "alt_km": 915.0074683353241,
        "timestamp": "2025-12-17T17:50:19.519252+00:00",
        "meta_object_name": "NNSS 20 (TRANSIT 20)",
        "meta_object_id": "1973-081A",
        "meta_epoch": "2025-12-17T06:47:20.238432",
        "meta_mean_motion": 13.71436495,
        "meta_eccentricity": 0.01565366,
        "meta_inclination": 89.8562,
        "meta_ra_of_asc_node": 254.9861,
        "meta_arg_of_pericenter": 64.8672,
        "meta_mean_anomaly": 296.8638,
        "meta_ephemeris_type": 0,
        "meta_classification_type": "U",
        "meta_norad_cat_id": 6909,
        "meta_element_set_no": 999,
        "meta_rev_at_epoch": 80423,
        "meta_bstar": 0.00023522987,
        "meta_mean_motion_dot": 2.42e-06,
        "meta_mean_motion_ddot": 0,
        "tle_line1": "1 06909U 73081A   25351.28287313  .00000242  00000+0  23523-3 0  9998",
        "tle_line2": "2 06909  89.8562 254.9861 0156536  64.8672 296.8638 13.71436495804230"
      },
      "geometry": {
        "type": "Point",
        "coordinates": [
          74.6692062804225,
          65.09900837360212
        ]
      }
    },
    {
      "type": "Feature",
      "properties": {
        "norad_id": 10457,
        "name": "TRANSAT",
        "group": "nnss",
        "lat": 1.0899191217665123,
        "lon": 78.42659921242759,
        "alt_km": 1098.1020650990713,
        "timestamp": "2025-12-17T17:50:19.519263+00:00",
        "meta_object_name": "TRANSAT",
        "meta_object_id": "1977-106A",
        "meta_epoch": "2025-12-17T07:28:04.452096",
        "meta_mean_motion": 13.48944277,
        "meta_eccentricity": 0.00258313,
        "meta_inclination": 89.6481,
        "meta_ra_of_asc_node": 78.4352,
        "meta_arg_of_pericenter": 176.3254,
        "meta_mean_anomaly": 247.7021,
        "meta_ephemeris_type": 0,
        "meta_classification_type": "U",
        "meta_norad_cat_id": 10457,
        "meta_element_set_no": 999,
        "meta_rev_at_epoch": 36805,
        "meta_bstar": 9.3572407e-05,
        "meta_mean_motion_dot": 6.9e-07,
        "meta_mean_motion_ddot": 0,
        "tle_line1": "1 10457U 77106A   25351.31116264  .00000069  00000+0  93572-4 0  9992",
        "tle_line2": "2 10457  89.6481  78.4352 0025831 176.3254 247.7021 13.48944277368055"
      },
      "geometry": {
        "type": "Point",
        "coordinates": [
          78.42659921242759,
          1.0899191217665123
        ]
      }
    },
    {
      "type": "Feature",
      "properties": {
        "norad_id": 12458,
        "name": "NOVA 1",
        "group": "nnss",
        "lat": 18.628317064276136,
        "lon": -88.73519748720946,
        "alt_km": 1168.263708922641,
        "timestamp": "2025-12-17T17:50:19.519274+00:00",
        "meta_object_name": "NOVA 1",
        "meta_object_id": "1981-044A",
        "meta_epoch": "2025-12-17T08:15:53.403840",
        "meta_mean_motion": 13.23278916,
        "meta_eccentricity": 0.00158995,
        "meta_inclination": 89.8528,
        "meta_ra_of_asc_node": 91.3201,
        "meta_arg_of_pericenter": 92.684,
        "meta_mean_anomaly": 329.1679,
        "meta_ephemeris_type": 0,
        "meta_classification_type": "U",
        "meta_norad_cat_id": 12458,
        "meta_element_set_no": 999,
        "meta_rev_at_epoch": 15247,
        "meta_bstar": 6.6740266e-05,
        "meta_mean_motion_dot": 3.7e-07,
        "meta_mean_motion_ddot": 0,
        "tle_line1": "1 12458U 81044A   25351.34436810  .00000037  00000+0  66740-4 0  9998",
        "tle_line2": "2 12458  89.8528  91.3201 0015899  92.6840 329.1679 13.23278916152477"
      },
      "geometry": {
        "type": "Point",
        "coordinates": [
          -88.73519748720946,
          18.628317064276136
        ]
      }
    }
  ]
}